ONEWEB-0456             
1 51646U 22012AA  24237.85831232  .00000196  00000+0  52452-3 0  9995
2 51646  87.8985 167.8147 0001799  82.3236 277.8096 13.10377620122737
ONEWEB-0457             
1 51647U 22012AB  24238.52228056 -.00000486  00000+0 -14299-2 0  9995
2 51647  87.8989 167.7119 0002241  75.2882 284.8493 13.10371391124124
ONEWEB-0458             
1 51648U 22012AC  24238.31479089  .00000028  00000+0  45224-4 0  9991
2 51648  87.8996 167.7693 0001903  70.6876 289.4457 13.10377942124057
ONEWEB-0461             
1 51649U 22012AD  24238.43192490  .00000067  00000+0  13994-3 0  9994
2 51649  87.9172 137.4602 0001917  74.4473 285.6870 13.17651224128167
ONEWEB-0463             
1 51650U 22012AE  24237.95854580  .00000046  00000+0  86335-4 0  9994
2 51650  87.9179 137.6042 0001960  72.9303 287.2043 13.17648203126597
ONEWEB-0464             
1 51651U 22012AF  24238.31148252 -.00000173  00000+0 -53261-3 0  9992
2 51651  87.8997 167.7588 0001624  82.0496 278.0816 13.10376420124075
ONEWEB-0468             
1 51652U 22012AG  24238.31810899  .00000197  00000+0  52684-3 0  9998
2 51652  87.8996 167.7499 0001913  76.5142 283.6198 13.10378953124048
ONEWEB-0473             
1 51653U 22012AH  24238.53223785 -.00000572  00000+0 -16750-2 0  9997
2 51653  87.8995 167.7109 0001902  74.1146 286.0191 13.10372106124080
ONEWEB-0474             
1 51654U 22012AJ  24238.21850858 -.00000547  00000+0 -16027-2 0  9999
2 51654  87.8984 167.7636 0001749  74.0134 286.1186 13.10371793124029
ONEWEB-0475             
1 51655U 22012AK  24237.74204119  .00000069  00000+0  14336-3 0  9999
2 51655  87.9178 137.6262 0001545  67.6520 292.4775 13.17648403126587
ONEWEB-0490             
1 54113U 22138A   24238.08796191  .00000056  00000+0  10789-3 0  9998
2 54113  87.9090  76.4822 0001610  88.7154 271.4163 13.19726162 90505
ONEWEB-0492             
1 54114U 22138B   24238.26486706  .00000077  00000+0  16020-3 0  9994
2 54114  87.9095  76.4535 0001495  92.0242 268.1062 13.19726927 90532
ONEWEB-0495             
1 54115U 22138C   24237.93948160  .00000014  00000+0  37893-5 0  9999
2 54115  87.9096  76.5302 0000874  89.0830 271.0402 13.19727444 89608
ONEWEB-0497             
1 54116U 22138D   24238.48282738  .00000032  00000+0  48249-4 0  9999
2 54116  87.9090  76.4066 0001621  88.9405 271.1913 13.19728065 90538
ONEWEB-0499             
1 54117U 22138E   24238.08638570 -.00000010  00000+0 -57269-4 0  9995
2 54117  87.9095  76.4903 0001614  70.3313 289.7994 13.19724088 90499
ONEWEB-0500             
1 54118U 22138F   24238.08953953  .00000028  00000+0  37340-4 0  9996
2 54118  87.9091  76.4834 0001700  89.6059 270.5268 13.19727005 90501
ONEWEB-0501             
1 54119U 22138G   24237.81629412  .00000160  00000+0  36692-3 0  9992
2 54119  87.9091  76.5356 0001185  86.0187 274.1081 13.19726434 89575
ONEWEB-0502             
1 54120U 22138H   24238.10532271  .00000103  00000+0  22519-3 0  9993
2 54120  87.9090  76.4660 0001412  80.6793 279.4499 13.19727993 90506
ONEWEB-0503             
1 54121U 22138J   24238.09426411 -.00000890  00000+0 -22567-2 0  9997
2 54121  87.9093  76.4744 0001893  74.6211 285.5131 13.19724832 90492
ONEWEB-0504             
1 54122U 22138K   24237.93001127 -.00000070  00000+0 -20604-3 0  9994
2 54122  87.9093  76.5151 0001469  75.7742 284.3554 13.19726837 89611
ONEWEB-0505             
1 54123U 22138L   24237.92684750 -.00000024  00000+0 -92645-4 0  9997
2 54123  87.9090  76.5097 0000998  76.3124 283.8120 13.19726397 89596
ONEWEB-0506             
1 54124U 22138M   24237.82575991  .00000054  00000+0  10274-3 0  9991
2 54124  87.9089  76.5267 0001475  84.9697 275.1604 13.19726662 89579
ONEWEB-0507             
1 54125U 22138N   24238.07374196  .00000082  00000+0  17258-3 0  9994
2 54125  87.9099  76.5043 0001418  90.8605 269.2690 13.19727259 90524
ONEWEB-0508             
1 54126U 22138P   24237.91894899  .00000047  00000+0  85346-4 0  9999
2 54126  87.9096  76.5267 0001275  95.3679 264.7599 13.19725082 89610
ONEWEB-0509             
1 54127U 22138Q   24238.12112370  .00000070  00000+0  14189-3 0  9993
2 54127  87.9089  76.4683 0001552  84.6795 275.4514 13.19727523 90487
ONEWEB-0510             
1 54128U 22138R   24237.92622482  .00000011  00000+0 -43812-5 0  9994
2 54128  87.9200  45.9663 0002149 100.6318 259.5058 13.20771014 91994
ONEWEB-0511             
1 54129U 22138S   24238.11796139  .00000002  00000+0 -26588-4 0  9998
2 54129  87.9090  76.4726 0001714  74.2743 285.8579 13.19727520 90514
ONEWEB-0512             
1 54130U 22138T   24238.11007418  .00000049  00000+0  89561-4 0  9995
2 54130  87.9098  76.4955 0001236  80.2814 279.8458 13.19726979 90485
ONEWEB-0513             
1 54131U 22138U   24237.92920468 -.00000195  00000+0 -52042-3 0  9990
2 54131  87.9096  76.5246 0001286  70.5127 289.6144 13.19725202 89478
ONEWEB-0514             
1 54132U 22138V   24238.12586944  .00000077  00000+0  15912-3 0  9993
2 54132  87.9091  76.4782 0001768  84.3309 275.8025 13.19726249 90501
ONEWEB-0515             
1 54133U 22138W   24237.91359276 -.00000033  00000+0 -11302-3 0  9999
2 54133  87.9198  45.9478 0002584 108.4126 251.7288 13.20768789 92014
ONEWEB-0516             
1 54134U 22138X   24238.10059336  .00000081  00000+0  17019-3 0  9998
2 54134  87.9099  76.4990 0001664  88.5418 271.5905 13.19723768 90507
ONEWEB-0517             
1 54135U 22138Y   24237.92843144 -.00000017  00000+0 -75010-4 0  9993
2 54135  87.9091  76.5137 0001830  72.8022 287.3311 13.19726362 89615
ONEWEB-0518             
1 54136U 22138Z   24238.09901884  .00000051  00000+0  93851-4 0  9998
2 54136  87.9097  76.4970 0001702  82.6049 277.5277 13.19727042 90500
ONEWEB-0519             
1 54137U 22138AA  24237.82102060  .00000127  00000+0  28521-3 0  9993
2 54137  87.9090  76.5301 0001473  74.7283 285.4012 13.19727006 89604
ONEWEB-0520             
1 54138U 22138AB  24237.93158030 -.00000018  00000+0 -77387-4 0  9990
2 54138  87.9091  76.5112 0001207  87.3273 272.7998 13.19727444 89608
ONEWEB-0521             
1 54139U 22138AC  24237.50985396  .00000020  00000+0  16966-4 0  9994
2 54139  87.9090  76.5872 0001926  80.1804 279.9546 13.19727263 89494
ONEWEB-0522             
1 54140U 22138AD  24238.09585348  .00000074  00000+0  15122-3 0  9995
2 54140  87.9089  76.4719 0001641  89.3317 270.8004 13.19727497 90486
ONEWEB-0523             
1 54141U 22138AE  24237.90095481 -.00001441  00000+0 -35775-2 0  9995
2 54141  87.9202  45.9786 0002640  93.2612 266.8823 13.20776551 92013
ONEWEB-0524             
1 54142U 22138AF  24238.19293731 -.00000312  00000+0 -80045-3 0  9993
2 54142  87.9197  45.9235 0002462 115.6728 244.4660 13.20771581 92924
ONEWEB-0525             
1 54143U 22138AG  24237.81154444  .00000117  00000+0  26052-3 0  9998
2 54143  87.9092  76.5393 0001406  84.8916 275.2377 13.19725210 89599
ONEWEB-0526             
1 54144U 22138AH  24237.92053544 -.00000008  00000+0 -51104-4 0  9998
2 54144  87.9089  76.5117 0001618  88.5288 271.6030 13.19724432 89588
ONEWEB-0529             
1 54145U 22138AJ  24237.92368770  .00000006  00000+0 -16873-4 0  9990
2 54145  87.9097  76.5311 0001388  88.8459 271.2833 13.19723185 89605
ONEWEB-0531             
1 54146U 22138AK  24237.87571892  .00000040  00000+0  67177-4 0  9996
2 54146  87.9197  45.9783 0002767 102.0500 258.0943 13.20768836 92016
ONEWEB-0535             
1 54147U 22138AL  24238.10848730 -.00000236  00000+0 -62254-3 0  9991
2 54147  87.9088  76.4717 0002022  88.7534 271.3831 13.19724812 90514
ONEWEB-0536             
1 54148U 22138AM  24237.93884754  .00000019  00000+0  14610-4 0  9999
2 54148  87.9196  46.0144 0002836  88.3821 271.7638 13.20772885 92011
ONEWEB-0527             
1 54642U 22166A   24238.11464921  .00000035  00000+0  53397-4 0  9993
2 54642  87.9331  15.6046 0001852  99.6228 260.5115 13.21826492 84659
ONEWEB-0528             
1 54643U 22166B   24238.42373181  .00000058  00000+0  10905-3 0  9997
2 54643  87.9335  15.5325 0001652 100.7445 259.3875 13.21827353 84708
ONEWEB-0539             
1 54644U 22166C   24237.93013781  .00000024  00000+0  27383-4 0  9992
2 54644  87.9333  15.6336 0001697  91.0831 269.0497 13.21826698 84181
ONEWEB-0540             
1 54645U 22166D   24237.92462213 -.00000044  00000+0 -13766-3 0  9993
2 54645  87.9328  15.6491 0001667  88.9189 271.2135 13.21824605 84175
ONEWEB-0542             
1 54646U 22166E   24237.93959253  .00000036  00000+0  54643-4 0  9999
2 54646  87.9333  15.6310 0001946  82.3422 277.7932 13.21822453 84186
ONEWEB-0545             
1 54647U 22166F   24238.43635792  .00000071  00000+0  14097-3 0  9992
2 54647  87.9324  15.5466 0001559  81.4270 278.7041 13.21825914 84681
ONEWEB-0580             
1 54648U 22166G   24237.80399255  .00000094  00000+0  19680-3 0  9992
2 54648  87.9331  15.6459 0001946  81.1295 279.0059 13.21825422 84178
ONEWEB-0582             
1 54649U 22166H   24237.92225178 -.00000040  00000+0 -12782-3 0  9997
2 54649  87.9328  15.6577 0002114  78.2574 281.8797 13.21825990 84160
ONEWEB-0583             
1 54650U 22166J   24237.93329028  .00000027  00000+0  34580-4 0  9993
2 54650  87.9326  15.6546 0001707  94.2840 265.8489 13.21826470 84172
ONEWEB-0584             
1 54651U 22166K   24238.10518643  .00000113  00000+0  24230-3 0  9993
2 54651  87.9333  15.5897 0001821  86.4336 273.7006 13.21826410 84659
ONEWEB-0585             
1 54652U 22166L   24238.43320267  .00000051  00000+0  92175-4 0  9998
2 54652  87.9335  15.5348 0001808  99.8270 260.3068 13.21827025 84702
ONEWEB-0586             
1 54653U 22166M   24238.14301774  .00000063  00000+0  12100-3 0  9991
2 54653  87.9328  15.6031 0001737  88.7012 271.4321 13.21828823 84664
ONEWEB-0587             
1 54654U 22166N   24237.92539100  .00000026  00000+0  32548-4 0  9991
2 54654  87.9325  15.6004 0001769 106.5642 253.5686 13.21828637 84326
